CUTE-1 (CO-55)          
1 27844U 03031E   24321.48450341  .00000758  00000+0  35128-3 0  9994
2 27844  98.6786 326.4441 0010767  65.7184 294.5118 14.23642650109482
CUBESAT XI-IV (CO-57)   
1 27848U 03031J   24321.48100132  .00000627  00000+0  29736-3 0  9991
2 27848  98.6815 326.5930 0010740  80.5664 279.6728 14.23029700109242
CUBESAT XI-V            
1 28895U 05043F   24321.12761785  .00005028  00000+0  85781-3 0  9999
2 28895  98.2224  97.5248 0014394 235.6239 124.3605 14.69355411 16756
CUTE-1.7+APD II (CO-65) 
1 32785U 08021C   24322.15484600  .00006595  00000+0  52967-3 0  9993
2 32785  97.7723 286.7137 0011085 176.9719 183.1573 15.00334921898451
AAUSAT-II               
1 32788U 08021F   24321.93470055  .00044311  00000+0  13799-2 0  9997
2 32788  97.6044 304.1438 0005976  48.9934 311.1824 15.33127235901683
CANX-2                  
1 32790U 08021H   24321.46018686  .00008431  00000+0  71249-3 0  9994
2 32790  97.7895 284.5988 0011207 172.2820 187.8577 14.98287043898144
SEEDS II (CO-66)        
1 32791U 08021J   24322.16880381  .00013315  00000+0  81879-3 0  9999
2 32791  97.7083 293.2306 0006657 124.7757 235.4099 15.10152332899630
SWISSCUBE               
1 35932U 09051B   24322.10774516  .00002208  00000+0  46800-3 0  9993
2 35932  98.4487 208.3952 0006243 196.2987 163.8013 14.60216290804904
BEESAT-1                
1 35933U 09051C   24321.66752866  .00002227  00000+0  47637-3 0  9998
2 35933  98.4419 208.6426 0004437 209.6044 150.4904 14.59792656804943
ITUPSAT1                
1 35935U 09051E   24322.13778905  .00001717  00000+0  37870-3 0  9996
2 35935  98.4516 208.8160 0006596 220.2148 139.8564 14.58668903804581
TISAT 1                 
1 36799U 10035E   24321.46970130  .00018554  00000+0  11939-2 0  9992
2 36799  98.0704 217.8972 0006241  77.5850 282.6075 15.08422040780163
AEROCUBE 4.5A           
1 38767U 12048K   24321.78407530  .00023202  00000+0  93836-3 0  9992
2 38767  64.6512 180.7757 0110160 329.0256  30.4400 15.19229613283562
AEROCUBE 4.5B           
1 38768U 12048L   24321.73818759  .00101390  00000+0  16905-2 0  9993
2 38768  64.6466  90.7607 0072867 316.1157  43.4207 15.48428866284825
STRAND-1                
1 39090U 13009E   24321.07989105  .00000917  00000+0  32723-3 0  9991
2 39090  98.3781 145.2357 0009187 152.6350 207.5322 14.36457746614046
BRITE-AUSTRIA           
1 39091U 13009F   24321.08988534  .00000632  00000+0  23169-3 0  9996
2 39091  98.3831 144.5203 0010601 160.5008 199.6586 14.36067501614067
NEE-01 PEGASO           
1 39151U 13018B   24321.98099773  .00004577  00000+0  50158-3 0  9990
2 39151  98.0532  80.9686 0013353 260.3502  99.6206 14.88207767624686
ESTCUBE 1               
1 39161U 13021C   24322.09547253  .00003044  00000+0  42757-3 0  9993
2 39161  97.8112  23.9114 0010035  94.4659 265.7699 14.78082145619703
POPACS 1                
1 39268U 13055D   24321.78102920  .00061132  15034-6  85261-3 0  9990
2 39268  80.9825 333.8349 0336750 315.3347  42.1190 15.11470064584895
POPACS 2                
1 39269U 13055E   24321.31995917  .00036434  00000+0  79221-3 0  9992
2 39269  81.0010  73.3339 0520150 216.4074 140.0695 14.64564472579027
POPACS 3                
1 39270U 13055F   24321.43784651  .00014513  00000+0  38369-3 0  9990
2 39270  81.0038 129.2437 0609172  12.7536 348.8296 14.41723955575569
ZACUBE-1 (TSHEPISOSAT)  
1 39417U 13066B   24321.42348661  .00011078  00000+0  10542-2 0  9996
2 39417  97.7544 274.4421 0048521  18.8446 341.4555 14.92696607594260
WNISAT-1                
1 39423U 13066H   24321.48255850  .00002582  00000+0  49407-3 0  9999
2 39423  97.6648 143.5422 0166571 250.7139 107.5980 14.56135413582803
TRITON-1                
1 39427U 13066M   24322.07828823  .00005639  00000+0  75406-3 0  9999
2 39427  97.8392 235.3120 0097318 309.9618  49.3074 14.76602275588946
DELFI-N3XT              
1 39428U 13066N   24321.30720898  .00016487  00000+0  18870-2 0  9992
2 39428  97.8356 236.0091 0091996 315.4693  43.9153 14.82988608588776
GOMX-1                  
1 39430U 13066Q   24322.11963789  .00002965  00000+0  47921-3 0  9999
2 39430  97.7060 187.2084 0137261 125.4617 235.9489 14.65916153585432
CUBEBUG-2 (LO-74)       
1 39440U 13066AA  24321.82974485  .00005929  00000+0  64984-3 0  9993
2 39440  97.8284 262.5887 0067594 132.8447 227.8475 14.86436240592186
NEE-02 KRYSAOR          
1 39441U 13066AB  24321.79348069  .00004125  00000+0  50112-3 0  9998
2 39441  97.8368 257.7370 0072149 157.6710 202.7671 14.82201688591689
FUNCUBE-1 (AO-73)       
1 39444U 13066AE  24321.44627419  .00014541  00000+0  12513-2 0  9997
2 39444  97.7401 278.0812 0044409 357.5882   2.5118 14.96707753593431
UWE-3                   
1 39446U 13066AG  24321.41694455  .00008859  00000+0  91060-3 0  9990
2 39446  97.7999 268.3257 0059475  78.4794 282.3093 14.89249755591927
BRITE-CA1 (TORONTO)     
1 40020U 14033L   24321.91203726  .00001749  00000+0  28230-3 0  9997
2 40020  97.8994  93.9645 0080877 325.0048  34.5859 14.70512461557419
DUCHIFAT-1              
1 40021U 14033M   24321.76319975  .00022731  00000+0  11932-2 0  9999
2 40021  98.0993 314.3711 0008964 315.2374  44.8132 15.15710011567168
NANOSATC-BR1            
1 40024U 14033Q   24321.89046292  .00015310  00000+0  95098-3 0  9996
2 40024  98.0798 301.1138 0007150  36.5989 323.5726 15.09757646566750
QB50P1                  
1 40025U 14033R   24321.46838202  .00014531  00000+0  10395-2 0  9990
2 40025  98.0616 287.8677 0013295  35.9214 324.2902 15.04484367566249
QB50P2                  
1 40032U 14033Y   24321.84733885  .00010673  00000+0  79827-3 0  9990
2 40032  98.0178 278.8552 0009076 343.8602  16.2332 15.02926198566084
PERSEUS-M2              
1 40037U 14033AD  24321.88795975  .00003663  00000+0  36583-3 0  9990
2 40037  97.9370 253.4153 0014279  55.7889 304.4680 14.92062235565082
PERSEUS-M1              
1 40039U 14033AF  24322.06615748  .00003503  00000+0  35125-3 0  9996
2 40039  97.9144 249.1986 0014007  54.2521 305.9997 14.91935890564974
POLYITAN-1              
1 40042U 14033AJ  24321.90401258  .00015383  00000+0  96573-3 0  9994
2 40042  98.0875 293.2723 0011265 354.3308   5.7789 15.09337610566321
TIGRISAT                
1 40043U 14033AK  24321.41953552  .00005242  00000+0  66818-3 0  9992
2 40043  97.7104 117.9179 0053670 166.0940 194.1766 14.80897444560276
AEROCUBE 6A             
1 40045U 14033AM  24321.45651611  .00010926  00000+0  11824-2 0  9990
2 40045  97.6763 129.4042 0047084 139.6429 220.8298 14.87605690560639
AEROCUBE 6B             
1 40046U 14033AN  24321.46573482  .00011439  00000+0  12091-2 0  9998
2 40046  97.6729 128.2674 0045822 134.2933 226.2057 14.88589613560842
CANX-4                  
1 40055U 14034C   24322.00139425  .00002073  00000+0  28674-3 0  9994
2 40055  98.3794 163.1475 0014413  64.5188 295.7511 14.79154765559163
CANX-5                  
1 40056U 14034D   24321.12612493  .00003133  00000+0  42941-3 0  9999
2 40056  98.3800 162.2467 0014425  67.2552 293.0181 14.79164682549815
UKUBE-1                 
1 40074U 14037F   24322.10753470  .00010950  00000+0  90958-3 0  9998
2 40074  98.3525 261.9968 0001459 311.0247  49.0847 14.98944421561647
BRITE-PL2 (HEWELIUSZ)   
1 40119U 14049B   24321.29331819  .00005155  00000+0  53031-3 0  9991
2 40119  97.8880  60.4769 0014479 219.7790 140.2367 14.90675986555316
AEROCUBE 5C             
1 40965U 15058B   24321.24078670  .00007764  00000+0  66441-3 0  9996
2 40965  64.7694 254.0191 0188520 262.6503  95.3148 14.85474233279607
AEROCUBE 7              
1 40966U 15058C   24321.23819914  .00009315  00000+0  75670-3 0  9998
2 40966  64.7663 246.1926 0182251 262.2766  95.7617 14.87973020279700
FOX-1A (AO-85)          
1 40967U 15058D   24321.22681449  .00008178  00000+0  71423-3 0  9996
2 40967  64.7767 268.4906 0186551 258.4011  99.6107 14.84927030 27545
SINOD-D 1               
1 40968U 15058E   24321.23229155  .00010556  00000+0  87056-3 0  9992
2 40968  64.7775 259.5707 0179250 257.3775 100.7240 14.87696924 30407
SNAP-3 ALICE            
1 40970U 15058G   24321.77352362  .00023686  00000+0  13205-2 0  9993
2 40970  64.7669 204.4248 0138590 255.0554 103.5187 15.05669616 28679
LMRST-SAT               
1 40971U 15058H   24321.34353914  .00007761  00000+0  67716-3 0  9994
2 40971  64.7771 263.6979 0187939 259.7550  98.2321 14.84837136 27567
SNAP-3 EDDIE            
1 40972U 15058J   24321.74335972  .00023982  00000+0  13179-2 0  9999
2 40972  64.7644 197.5921 0138757 255.9336 102.6327 15.06136412 30770
PROPCUBE 3              
1 40973U 15058K   24321.97257812  .00006826  00000+0  56948-3 0  9991
2 40973  64.7707 248.0238 0183856 260.9570  97.0695 14.87099424 28726
BISONSAT                
1 40974U 15058L   24322.14737153  .00012402  00000+0  82808-3 0  9994
2 40974  64.7658 215.4667 0158003 258.5002  99.8336 14.97609326 28614
SNAP-3 JIMI             
1 40975U 15058M   24322.15678229  .00009201  00000+0  69946-3 0  9995
2 40975  64.7687 232.8235 0173028 259.8501  98.3056 14.91478840 27805
PROPCUBE 1 (FLORA)      
1 40976U 15058N   24321.59525835  .00007141  00000+0  64882-3 0  9992
2 40976  64.7759 279.2165 0186879 261.0477  96.9438 14.83560680 30388
SINOD-D 3               
1 40977U 15058P   24322.08990372  .00007801  00000+0  67198-3 0  9996
2 40977  64.7745 269.3143 0179462 260.1073  97.9738 14.86333154 28728
HORYU-4                 
1 41340U 16012D   24321.65035726  .00023126  00000+0  91429-3 0  9999
2 41340  31.0020  56.9630 0009868  94.0537 266.1233 15.24255132481363
RAVAN                   
1 41849U 16067B   24322.03632453  .00016209  00000+0  74311-3 0  9991
2 41849  98.0589 149.3837 0010784 226.5390 133.4947 15.20498082439151
CELTEE 1                
1 41850U 16067C   24322.02853994  .00007762  00000+0  47774-3 0  9994
2 41850  98.1069 139.8823 0002111  58.9677 301.1758 15.10315369438468
